[{"OBJECT_NAME":"ONEWEB-0403","OBJECT_ID":"2021-132Q","EPOCH":"2026-05-25T01:14:42.901152","MEAN_MOTION":13.1868685,"ECCENTRICITY":0.0001949,"INCLINATION":87.9171,"RA_OF_ASC_NODE":340.059,"ARG_OF_PERICENTER":90.9264,"MEAN_ANOMALY":269.2091,"EPHEMERIS_TYPE":0,"CLASSIFICATION_TYPE":"U","NORAD_CAT_ID":50483,"ELEMENT_SET_NO":999,"REV_AT_EPOCH":21854,"BSTAR":5.499800000000001e-06,"MEAN_MOTION_DOT":1.5e-07,"MEAN_MOTION_DDOT":0.0},{"OBJECT_NAME":"ONEWEB-0404","OBJECT_ID":"2021-132R","EPOCH":"2026-05-25T03:17:41.557920","MEAN_MOTION":13.1141494,"ECCENTRICITY":0.0002043,"INCLINATION":87.8909,"RA_OF_ASC_NODE":25.653,"ARG_OF_PERICENTER":88.5221,"MEAN_ANOMALY":271.6141,"EPHEMERIS_TYPE":0,"CLASSIFICATION_TYPE":"U","NORAD_CAT_ID":50484,"ELEMENT_SET_NO":999,"REV_AT_EPOCH":21267,"BSTAR":-2.6994000000000003e-05,"MEAN_MOTION_DOT":3e-08,"MEAN_MOTION_DDOT":0.0},{"OBJECT_NAME":"ONEWEB-0405","OBJECT_ID":"2021-132S","EPOCH":"2026-05-25T01:34:08.495040","MEAN_MOTION":13.18685013,"ECCENTRICITY":0.0001523,"INCLINATION":87.9173,"RA_OF_ASC_NODE":340.0404,"ARG_OF_PERICENTER":100.1066,"MEAN_ANOMALY":260.0238,"EPHEMERIS_TYPE":0,"CLASSIFICATION_TYPE":"U","NORAD_CAT_ID":50485,"ELEMENT_SET_NO":999,"REV_AT_EPOCH":21894,"BSTAR":6.0311000000000006e-05,"MEAN_MOTION_DOT":3.7e-07,"MEAN_MOTION_DDOT":0.0},{"OBJECT_NAME":"ONEWEB-0406","OBJECT_ID":"2021-132T","EPOCH":"2026-05-25T01:22:00.347808","MEAN_MOTION":13.18687825,"ECCENTRICITY":0.0002337,"INCLINATION":87.916,"RA_OF_ASC_NODE":340.0604,"ARG_OF_PERICENTER":97.0181,"MEAN_ANOMALY":263.1217,"EPHEMERIS_TYPE":0,"CLASSIFICATION_TYPE":"U","NORAD_CAT_ID":50486,"ELEMENT_SET_NO":999,"REV_AT_EPOCH":21857,"BSTAR":-0.00011344999999999999,"MEAN_MOTION_DOT":-3.2e-07,"MEAN_MOTION_DDOT":0.0},{"OBJECT_NAME":"ONEWEB-0407","OBJECT_ID":"2021-132U","EPOCH":"2026-05-25T01:12:16.934400","MEAN_MOTION":13.18685479,"ECCENTRICITY":0.0001663,"INCLINATION":87.9169,"RA_OF_ASC_NODE":340.0523,"ARG_OF_PERICENTER":83.776,"MEAN_ANOMALY":276.3562,"EPHEMERIS_TYPE":0,"CLASSIFICATION_TYPE":"U","NORAD_CAT_ID":50487,"ELEMENT_SET_NO":999,"REV_AT_EPOCH":21851,"BSTAR":0.00010204,"MEAN_MOTION_DOT":5.3e-07,"MEAN_MOTION_DDOT":0.0},{"OBJECT_NAME":"ONEWEB-0409","OBJECT_ID":"2021-132V","EPOCH":"2026-05-25T03:15:14.987232","MEAN_MOTION":13.11414285,"ECCENTRICITY":0.0001931,"INCLINATION":87.8914,"RA_OF_ASC_NODE":25.6403,"ARG_OF_PERICENTER":90.3102,"MEAN_ANOMALY":269.8247,"EPHEMERIS_TYPE":0,"CLASSIFICATION_TYPE":"U","NORAD_CAT_ID":50488,"ELEMENT_SET_NO":999,"REV_AT_EPOCH":21256,"BSTAR":0.00017067,"MEAN_MOTION_DOT":7.3e-07,"MEAN_MOTION_DDOT":0.0},{"OBJECT_NAME":"ONEWEB-0412","OBJECT_ID":"2021-132W","EPOCH":"2026-05-24T23:06:01.933632","MEAN_MOTION":13.18687495,"ECCENTRICITY":0.0001958,"INCLINATION":87.9167,"RA_OF_ASC_NODE":340.0788,"ARG_OF_PERICENTER":79.5661,"MEAN_ANOMALY":280.5691,"EPHEMERIS_TYPE":0,"CLASSIFICATION_TYPE":"U","NORAD_CAT_ID":50489,"ELEMENT_SET_NO":999,"REV_AT_EPOCH":21859,"BSTAR":0.00010607,"MEAN_MOTION_DOT":5.5e-07,"MEAN_MOTION_DDOT":0.0},{"OBJECT_NAME":"ONEWEB-0413","OBJECT_ID":"2021-132X","EPOCH":"2026-05-25T01:02:34.697760","MEAN_MOTION":13.18687189,"ECCENTRICITY":0.0001805,"INCLINATION":87.916,"RA_OF_ASC_NODE":340.0633,"ARG_OF_PERICENTER":79.4157,"MEAN_ANOMALY":280.7178,"EPHEMERIS_TYPE":0,"CLASSIFICATION_TYPE":"U","NORAD_CAT_ID":50490,"ELEMENT_SET_NO":999,"REV_AT_EPOCH":21854,"BSTAR":7.9868e-05,"MEAN_MOTION_DOT":4.4e-07,"MEAN_MOTION_DDOT":0.0},{"OBJECT_NAME":"ONEWEB-0414","OBJECT_ID":"2021-132Y","EPOCH":"2026-05-25T02:29:58.434720","MEAN_MOTION":13.18687291,"ECCENTRICITY":0.0001974,"INCLINATION":87.9169,"RA_OF_ASC_NODE":340.0306,"ARG_OF_PERICENTER":85.1762,"MEAN_ANOMALY":274.9595,"EPHEMERIS_TYPE":0,"CLASSIFICATION_TYPE":"U","NORAD_CAT_ID":50491,"ELEMENT_SET_NO":999,"REV_AT_EPOCH":21858,"BSTAR":4.7083e-05,"MEAN_MOTION_DOT":3.1e-07,"MEAN_MOTION_DDOT":0.0},{"OBJECT_NAME":"ONEWEB-0417","OBJECT_ID":"2021-132Z","EPOCH":"2026-05-25T02:42:07.521120","MEAN_MOTION":13.18688028,"ECCENTRICITY":0.0001998,"INCLINATION":87.916,"RA_OF_ASC_NODE":340.0506,"ARG_OF_PERICENTER":93.6983,"MEAN_ANOMALY":266.4378,"EPHEMERIS_TYPE":0,"CLASSIFICATION_TYPE":"U","NORAD_CAT_ID":50492,"ELEMENT_SET_NO":999,"REV_AT_EPOCH":21856,"BSTAR":6.437600000000001e-05,"MEAN_MOTION_DOT":3.8e-07,"MEAN_MOTION_DDOT":0.0},{"OBJECT_NAME":"ONEWEB-0418","OBJECT_ID":"2021-132AA","EPOCH":"2026-05-25T01:07:13.846656","MEAN_MOTION":13.18685442,"ECCENTRICITY":0.000204,"INCLINATION":87.9169,"RA_OF_ASC_NODE":340.061,"ARG_OF_PERICENTER":95.3511,"MEAN_ANOMALY":264.7854,"EPHEMERIS_TYPE":0,"CLASSIFICATION_TYPE":"U","NORAD_CAT_ID":50493,"ELEMENT_SET_NO":999,"REV_AT_EPOCH":21861,"BSTAR":2.9396e-05,"MEAN_MOTION_DOT":2.5e-07,"MEAN_MOTION_DDOT":0.0},{"OBJECT_NAME":"ONEWEB-0419","OBJECT_ID":"2021-132AB","EPOCH":"2026-05-25T01:33:29.204640","MEAN_MOTION":13.1866407,"ECCENTRICITY":0.0001852,"INCLINATION":87.9171,"RA_OF_ASC_NODE":340.0571,"ARG_OF_PERICENTER":96.9411,"MEAN_ANOMALY":263.1932,"EPHEMERIS_TYPE":0,"CLASSIFICATION_TYPE":"U","NORAD_CAT_ID":50494,"ELEMENT_SET_NO":999,"REV_AT_EPOCH":21853,"BSTAR":-7.1564000000000015e-06,"MEAN_MOTION_DOT":1e-07,"MEAN_MOTION_DDOT":0.0},{"OBJECT_NAME":"ONEWEB-0420","OBJECT_ID":"2021-132AC","EPOCH":"2026-05-25T02:32:23.775072","MEAN_MOTION":13.18687149,"ECCENTRICITY":0.0001669,"INCLINATION":87.9161,"RA_OF_ASC_NODE":340.054,"ARG_OF_PERICENTER":84.7322,"MEAN_ANOMALY":275.4001,"EPHEMERIS_TYPE":0,"CLASSIFICATION_TYPE":"U","NORAD_CAT_ID":50495,"ELEMENT_SET_NO":999,"REV_AT_EPOCH":21853,"BSTAR":-4.1252000000000004e-05,"MEAN_MOTION_DOT":-3e-08,"MEAN_MOTION_DDOT":0.0},{"OBJECT_NAME":"ONEWEB-0421","OBJECT_ID":"2021-132AD","EPOCH":"2026-05-25T02:22:42.200256","MEAN_MOTION":13.18685791,"ECCENTRICITY":0.0002159,"INCLINATION":87.9165,"RA_OF_ASC_NODE":340.0518,"ARG_OF_PERICENTER":82.4235,"MEAN_ANOMALY":277.7143,"EPHEMERIS_TYPE":0,"CLASSIFICATION_TYPE":"U","NORAD_CAT_ID":50496,"ELEMENT_SET_NO":999,"REV_AT_EPOCH":21857,"BSTAR":5.6199e-05,"MEAN_MOTION_DOT":3.5e-07,"MEAN_MOTION_DDOT":0.0},{"OBJECT_NAME":"ONEWEB-0424","OBJECT_ID":"2021-132AE","EPOCH":"2026-05-25T01:26:51.959040","MEAN_MOTION":13.18687845,"ECCENTRICITY":0.0001713,"INCLINATION":87.9167,"RA_OF_ASC_NODE":340.0569,"ARG_OF_PERICENTER":99.9664,"MEAN_ANOMALY":260.1661,"EPHEMERIS_TYPE":0,"CLASSIFICATION_TYPE":"U","NORAD_CAT_ID":50497,"ELEMENT_SET_NO":999,"REV_AT_EPOCH":21859,"BSTAR":-0.00017627999999999999,"MEAN_MOTION_DOT":-5.7e-07,"MEAN_MOTION_DDOT":0.0},{"OBJECT_NAME":"ONEWEB-0426","OBJECT_ID":"2021-132AF","EPOCH":"2026-05-25T02:16:39.697824","MEAN_MOTION":13.18687153,"ECCENTRICITY":0.0002544,"INCLINATION":87.9168,"RA_OF_ASC_NODE":340.0413,"ARG_OF_PERICENTER":89.5338,"MEAN_ANOMALY":270.6086,"EPHEMERIS_TYPE":0,"CLASSIFICATION_TYPE":"U","NORAD_CAT_ID":50498,"ELEMENT_SET_NO":999,"REV_AT_EPOCH":21854,"BSTAR":0.00012256,"MEAN_MOTION_DOT":6.1e-07,"MEAN_MOTION_DDOT":0.0},{"OBJECT_NAME":"ONEWEB-0427","OBJECT_ID":"2021-132AG","EPOCH":"2026-05-25T01:24:25.695072","MEAN_MOTION":13.1868669,"ECCENTRICITY":0.0002023,"INCLINATION":87.9171,"RA_OF_ASC_NODE":340.0368,"ARG_OF_PERICENTER":92.959,"MEAN_ANOMALY":267.1774,"EPHEMERIS_TYPE":0,"CLASSIFICATION_TYPE":"U","NORAD_CAT_ID":50499,"ELEMENT_SET_NO":999,"REV_AT_EPOCH":21856,"BSTAR":-2.0127000000000002e-05,"MEAN_MOTION_DOT":5e-08,"MEAN_MOTION_DDOT":0.0},{"OBJECT_NAME":"ONEWEB-0429","OBJECT_ID":"2021-132AH","EPOCH":"2026-05-25T01:04:59.477376","MEAN_MOTION":13.18688897,"ECCENTRICITY":0.0001722,"INCLINATION":87.9162,"RA_OF_ASC_NODE":340.0658,"ARG_OF_PERICENTER":85.5254,"MEAN_ANOMALY":274.6074,"EPHEMERIS_TYPE":0,"CLASSIFICATION_TYPE":"U","NORAD_CAT_ID":50500,"ELEMENT_SET_NO":999,"REV_AT_EPOCH":21853,"BSTAR":8.346800000000001e-05,"MEAN_MOTION_DOT":4.6e-07,"MEAN_MOTION_DDOT":0.0},{"OBJECT_NAME":"ONEWEB-0430","OBJECT_ID":"2021-132AJ","EPOCH":"2026-05-25T02:37:15.091680","MEAN_MOTION":13.18694924,"ECCENTRICITY":0.0001612,"INCLINATION":87.9161,"RA_OF_ASC_NODE":340.0511,"ARG_OF_PERICENTER":91.2207,"MEAN_ANOMALY":268.911,"EPHEMERIS_TYPE":0,"CLASSIFICATION_TYPE":"U","NORAD_CAT_ID":50501,"ELEMENT_SET_NO":999,"REV_AT_EPOCH":21858,"BSTAR":-0.0022464,"MEAN_MOTION_DOT":-8.73e-06,"MEAN_MOTION_DDOT":0.0},{"OBJECT_NAME":"ONEWEB-0432","OBJECT_ID":"2021-132AK","EPOCH":"2026-05-25T01:35:26.560032","MEAN_MOTION":13.18712754,"ECCENTRICITY":0.0001606,"INCLINATION":87.9169,"RA_OF_ASC_NODE":340.0317,"ARG_OF_PERICENTER":107.7591,"MEAN_ANOMALY":252.3717,"EPHEMERIS_TYPE":0,"CLASSIFICATION_TYPE":"U","NORAD_CAT_ID":50502,"ELEMENT_SET_NO":999,"REV_AT_EPOCH":21853,"BSTAR":-5.6287e-05,"MEAN_MOTION_DOT":-9e-08,"MEAN_MOTION_DDOT":0.0},{"OBJECT_NAME":"ONEWEB-0440","OBJECT_ID":"2021-132AL","EPOCH":"2026-05-25T01:17:08.951712","MEAN_MOTION":13.18687888,"ECCENTRICITY":0.0001894,"INCLINATION":87.9171,"RA_OF_ASC_NODE":340.0567,"ARG_OF_PERICENTER":78.3462,"MEAN_ANOMALY":281.7883,"EPHEMERIS_TYPE":0,"CLASSIFICATION_TYPE":"U","NORAD_CAT_ID":50503,"ELEMENT_SET_NO":999,"REV_AT_EPOCH":21852,"BSTAR":3.063e-05,"MEAN_MOTION_DOT":2.5e-07,"MEAN_MOTION_DDOT":0.0},{"OBJECT_NAME":"ONEWEB-0450","OBJECT_ID":"2021-132AM","EPOCH":"2026-05-25T01:07:38.701344","MEAN_MOTION":13.18686609,"ECCENTRICITY":0.0001644,"INCLINATION":87.9159,"RA_OF_ASC_NODE":340.0656,"ARG_OF_PERICENTER":85.1555,"MEAN_ANOMALY":274.9765,"EPHEMERIS_TYPE":0,"CLASSIFICATION_TYPE":"U","NORAD_CAT_ID":50504,"ELEMENT_SET_NO":999,"REV_AT_EPOCH":21855,"BSTAR":0.00011015,"MEAN_MOTION_DOT":5.6e-07,"MEAN_MOTION_DDOT":0.0},{"OBJECT_NAME":"ONEWEB-0410","OBJECT_ID":"2022-012A","EPOCH":"2026-05-25T03:11:03.653088","MEAN_MOTION":13.17650931,"ECCENTRICITY":0.0003058,"INCLINATION":87.9164,"RA_OF_ASC_NODE":10.4397,"ARG_OF_PERICENTER":97.6431,"MEAN_ANOMALY":262.5048,"EPHEMERIS_TYPE":0,"CLASSIFICATION_TYPE":"U","NORAD_CAT_ID":51622,"ELEMENT_SET_NO":999,"REV_AT_EPOCH":21066,"BSTAR":0.00012883,"MEAN_MOTION_DOT":6.3e-07,"MEAN_MOTION_DDOT":0.0}]